{
  "type": "FeatureCollection",
  "features": [
    {
      "type": "Feature",
      "properties": {
        "norad_id": 55973,
        "name": "TIANMU-1 03",
        "group": "weather",
        "lat": -69.4916392283444,
        "lon": -54.470765083243926,
        "alt_km": 454.18119181799466,
        "timestamp": "2025-12-09T14:52:25.808486+00:00",
        "meta_object_name": "TIANMU-1 03",
        "meta_object_id": "2023-039A",
        "meta_epoch": "2025-12-09T05:59:42.948960",
        "meta_mean_motion": 15.40764007,
        "meta_eccentricity": 0.00045035,
        "meta_inclination": 97.5112,
        "meta_ra_of_asc_node": 145.8045,
        "meta_arg_of_pericenter": 71.0256,
        "meta_mean_anomaly": 289.1478,
        "meta_ephemeris_type": 0,
        "meta_classification_type": "U",
        "meta_norad_cat_id": 55973,
        "meta_element_set_no": 999,
        "meta_rev_at_epoch": 15152,
        "meta_bstar": 0.00048539669,
        "meta_mean_motion_dot": 0.00019805,
        "meta_mean_motion_ddot": 0,
        "tle_line1": "1 55973U 23039A   25343.24980265  .00019805  00000+0  48540-3 0  9995",
        "tle_line2": "2 55973  97.5112 145.8045 0004503  71.0256 289.1478 15.40764007151523"
      },
      "geometry": {
        "type": "Point",
        "coordinates": [
          -54.470765083243926,
          -69.4916392283444
        ]
      }
    },
    {
      "type": "Feature",
      "properties": {
        "norad_id": 55974,
        "name": "TIANMU-1 04",
        "group": "weather",
        "lat": 0.8370428956377628,
        "lon": 145.26644790135492,
        "alt_km": 444.2772630750633,
        "timestamp": "2025-12-09T14:52:25.808497+00:00",
        "meta_object_name": "TIANMU-1 04",
        "meta_object_id": "2023-039B",
        "meta_epoch": "2025-12-09T07:04:42.650976",
        "meta_mean_motion": 15.41100125,
        "meta_eccentricity": 0.00051845,
        "meta_inclination": 97.5044,
        "meta_ra_of_asc_node": 145.0432,
        "meta_arg_of_pericenter": 66.1419,
        "meta_mean_anomaly": 294.037,
        "meta_ephemeris_type": 0,
        "meta_classification_type": "U",
        "meta_norad_cat_id": 55974,
        "meta_element_set_no": 999,
        "meta_rev_at_epoch": 15153,
        "meta_bstar": 0.00047190646,
        "meta_mean_motion_dot": 0.00019469,
        "meta_mean_motion_ddot": 0,
        "tle_line1": "1 55974U 23039B   25343.29493809  .00019469  00000+0  47191-3 0  9991",
        "tle_line2": "2 55974  97.5044 145.0432 0005184  66.1419 294.0370 15.41100125151535"
      },
      "geometry": {
        "type": "Point",
        "coordinates": [
          145.26644790135492,
          0.8370428956377628
        ]
      }
    },
    {
      "type": "Feature",
      "properties": {
        "norad_id": 55975,
        "name": "TIANMU-1 05",
        "group": "weather",
        "lat": 36.65543348121509,
        "lon": 140.23568585383055,
        "alt_km": 439.47975143581607,
        "timestamp": "2025-12-09T14:52:25.808507+00:00",
        "meta_object_name": "TIANMU-1 05",
        "meta_object_id": "2023-039C",
        "meta_epoch": "2025-12-09T06:55:12.513792",
        "meta_mean_motion": 15.40723953,
        "meta_eccentricity": 0.00043781,
        "meta_inclination": 97.5091,
        "meta_ra_of_asc_node": 145.5286,
        "meta_arg_of_pericenter": 87.5038,
        "meta_mean_anomaly": 272.671,
        "meta_ephemeris_type": 0,
        "meta_classification_type": "U",
        "meta_norad_cat_id": 55975,
        "meta_element_set_no": 999,
        "meta_rev_at_epoch": 15151,
        "meta_bstar": 0.0004892377,
        "meta_mean_motion_dot": 0.00019936,
        "meta_mean_motion_ddot": 0,
        "tle_line1": "1 55975U 23039C   25343.28833928  .00019936  00000+0  48924-3 0  9995",
        "tle_line2": "2 55975  97.5091 145.5286 0004378  87.5038 272.6710 15.40723953151515"
      },
      "geometry": {
        "type": "Point",
        "coordinates": [
          140.23568585383055,
          36.65543348121509
        ]
      }
    },
    {
      "type": "Feature",
      "properties": {
        "norad_id": 55976,
        "name": "TIANMU-1 06",
        "group": "weather",
        "lat": -11.696701451119436,
        "lon": 147.89663481747388,
        "alt_km": 447.35895355484354,
        "timestamp": "2025-12-09T14:52:25.808521+00:00",
        "meta_object_name": "TIANMU-1 06",
        "meta_object_id": "2023-039D",
        "meta_epoch": "2025-12-09T07:08:00.627936",
        "meta_mean_motion": 15.41153364,
        "meta_eccentricity": 0.00046968,
        "meta_inclination": 97.5102,
        "meta_ra_of_asc_node": 146,
        "meta_arg_of_pericenter": 82.9681,
        "meta_mean_anomaly": 277.2099,
        "meta_ephemeris_type": 0,
        "meta_classification_type": "U",
        "meta_norad_cat_id": 55976,
        "meta_element_set_no": 999,
        "meta_rev_at_epoch": 15153,
        "meta_bstar": 0.00048816608,
        "meta_mean_motion_dot": 0.00020178,
        "meta_mean_motion_ddot": 0,
        "tle_line1": "1 55976U 23039D   25343.29722949  .00020178  00000+0  48817-3 0  9998",
        "tle_line2": "2 55976  97.5102 146.0000 0004696  82.9681 277.2099 15.41153364151532"
      },
      "geometry": {
        "type": "Point",
        "coordinates": [
          147.89663481747388,
          -11.696701451119436
        ]
      }
    },
    {
      "type": "Feature",
      "properties": {
        "norad_id": 56232,
        "name": "FENGYUN 3G",
        "group": "weather",
        "lat": -49.73963536954504,
        "lon": 146.19108955512914,
        "alt_km": 415.49474935351645,
        "timestamp": "2025-12-09T14:52:25.808532+00:00",
        "meta_object_name": "FENGYUN 3G",
        "meta_object_id": "2023-055A",
        "meta_epoch": "2025-12-09T07:33:42.923232",
        "meta_mean_motion": 15.53330578,
        "meta_eccentricity": 0.00092677,
        "meta_inclination": 49.9935,
        "meta_ra_of_asc_node": 245.1236,
        "meta_arg_of_pericenter": 132.2351,
        "meta_mean_anomaly": 227.9405,
        "meta_ephemeris_type": 0,
        "meta_classification_type": "U",
        "meta_norad_cat_id": 56232,
        "meta_element_set_no": 999,
        "meta_rev_at_epoch": 15049,
        "meta_bstar": 0.00061566914,
        "meta_mean_motion_dot": 0.00039435,
        "meta_mean_motion_ddot": 0,
        "tle_line1": "1 56232U 23055A   25343.31508013  .00039435  00000+0  61567-3 0  9992",
        "tle_line2": "2 56232  49.9935 245.1236 0009267 132.2351 227.9405 15.53330578150491"
      },
      "geometry": {
        "type": "Point",
        "coordinates": [
          146.19108955512914,
          -49.73963536954504
        ]
      }
    },
    {
      "type": "Feature",
      "properties": {
        "norad_id": 57166,
        "name": "METEOR-M2 3",
        "group": "weather",
        "lat": 75.44325341972998,
        "lon": -106.95434575497882,
        "alt_km": 804.2984580887514,
        "timestamp": "2025-12-09T14:52:25.808543+00:00",
        "meta_object_name": "METEOR-M2 3",
        "meta_object_id": "2023-091A",
        "meta_epoch": "2025-12-09T07:39:10.251360",
        "meta_mean_motion": 14.2402552,
        "meta_eccentricity": 0.00041069,
        "meta_inclination": 98.6383,
        "meta_ra_of_asc_node": 36.9179,
        "meta_arg_of_pericenter": 18.1928,
        "meta_mean_anomaly": 341.9397,
        "meta_ephemeris_type": 0,
        "meta_classification_type": "U",
        "meta_norad_cat_id": 57166,
        "meta_element_set_no": 999,
        "meta_rev_at_epoch": 12749,
        "meta_bstar": 4.1025418e-05,
        "meta_mean_motion_dot": 5.1e-07,
        "meta_mean_motion_ddot": 0,
        "tle_line1": "1 57166U 23091A   25343.31886865  .00000051  00000+0  41025-4 0  9993",
        "tle_line2": "2 57166  98.6383  36.9179 0004106  18.1928 341.9397 14.24025520127493"
      },
      "geometry": {
        "type": "Point",
        "coordinates": [
          -106.95434575497882,
          75.44325341972998
        ]
      }
    },
    {
      "type": "Feature",
      "properties": {
        "norad_id": 57399,
        "name": "TIANMU-1 07",
        "group": "weather",
        "lat": -22.477999770186226,
        "lon": -149.49701515670793,
        "alt_km": 488.830230145878,
        "timestamp": "2025-12-09T14:52:25.808554+00:00",
        "meta_object_name": "TIANMU-1 07",
        "meta_object_id": "2023-101A",
        "meta_epoch": "2025-12-09T07:42:13.739904",
        "meta_mean_motion": 15.27993625,
        "meta_eccentricity": 0.00056441,
        "meta_inclination": 97.2876,
        "meta_ra_of_asc_node": 33.2461,
        "meta_arg_of_pericenter": 90.1528,
        "meta_mean_anomaly": 270.0359,
        "meta_ephemeris_type": 0,
        "meta_classification_type": "U",
        "meta_norad_cat_id": 57399,
        "meta_element_set_no": 999,
        "meta_rev_at_epoch": 13263,
        "meta_bstar": 0.00035908466,
        "meta_mean_motion_dot": 9.742e-05,
        "meta_mean_motion_ddot": 0,
        "tle_line1": "1 57399U 23101A   25343.32099236  .00009742  00000+0  35908-3 0  9990",
        "tle_line2": "2 57399  97.2876  33.2461 0005644  90.1528 270.0359 15.27993625132637"
      },
      "geometry": {
        "type": "Point",
        "coordinates": [
          -149.49701515670793,
          -22.477999770186226
        ]
      }
    }
  ]
}